NORAD_CAT_ID,OBJECT_NAME,OBJECT_TYPE,EPOCH,MEAN_MOTION,ECCENTRICITY,INCLINATION,RA_OF_ASC_NODE,ARG_OF_PERICENTER,MEAN_ANOMALY,BSTAR,MEAN_MOTION_DOT,MEAN_MOTION_DDOT,TLE_LINE0,TLE_LINE1,TLE_LINE2,SEMIMAJOR_AXIS,PERIOD,APOGEE,PERIGEE,DECAYED
52565.0,STARLINK-3911,PAYLOAD,2022-05-18 18:00:00,15.82526056,0.0001327,53.2186,269.3592,41.2523,302.0593,-0.0042961,-0.00833352,0.0,0 STARLINK-3911,1 52565U 22051AJ  22138.75001157 -.00833352  00000-0 -42961-2 0  9995,2 52565  53.2186 269.3592 0001327  41.2523 302.0593 15.82526056  1302,6701.437,90.994,324.191,322.413,0.0
52565.0,STARLINK-3911,PAYLOAD,2022-05-19 06:00:00,15.81614099,0.0001286,53.2173,266.849,43.677,269.0197,-0.004746,-0.00877344,0.0,0 STARLINK-3911,1 52565U 22051AJ  22139.25001157 -.00877344  00000-0 -47460-2 0  9999,2 52565  53.2173 266.8490 0001286  43.6770 269.0197 15.81614099  1374,6704.013000000001,91.046,326.74,325.015,0.0
52565.0,STARLINK-3911,PAYLOAD,2022-05-19 14:00:01,15.80986687,0.0001661,53.2173,265.1814,29.8558,21.5584,-0.0049016,-0.0087981,0.0,0 STARLINK-3911,1 52565U 22051AJ  22139.58335648 -.00879810  00000-0 -49016-2 0  9999,2 52565  53.2173 265.1814 0001661  29.8558  21.5584 15.80986687  1301,6705.786,91.082,328.765,326.5370000000001,0.0
52565.0,STARLINK-3911,PAYLOAD,2022-05-19 22:00:00,15.803569199999998,0.0001575999999999,53.2172,263.5136,36.1933,113.0525,-0.0050429,-0.00879117,0.0,0 STARLINK-3911,1 52565U 22051AJ  22139.91667824 -.00879117  00000-0 -50429-2 0  9990,2 52565  53.2172 263.5136 0001576  36.1933 113.0525 15.80356920  1305,6707.568,91.119,330.49,328.375,0.0
52565.0,STARLINK-3911,PAYLOAD,2022-05-20 04:00:00,15.79881629,0.0001693,53.2175,262.2622,31.1731,101.0012,-0.0051126,-0.00872633,0.0,0 STARLINK-3911,1 52565U 22051AJ  22140.16667824 -.00872633  00000-0 -51126-2 0  9990,2 52565  53.2175 262.2622 0001693  31.1731 101.0012 15.79881629  1524,6708.913000000001,91.146,331.914,329.642,0.0
52565.0,STARLINK-3911,PAYLOAD,2022-05-20 14:00:01,15.7909832,0.0001898,53.2176,260.1825,24.1667,318.6049,-0.0053386,-0.00878494,0.0,0 STARLINK-3911,1 52565U 22051AJ  22140.58334491 -.00878494  00000-0 -53386-2 0  9998,2 52565  53.2176 260.1825 0001898  24.1667 318.6049 15.79098320  1304,6711.130999999999,91.191,334.27,331.722,0.0
52565.0,STARLINK-3911,PAYLOAD,2022-05-20 22:00:00,15.7846824,0.000201,53.2171,258.5191,21.54,56.8605,-0.00548,-0.00876487,0.0,0 STARLINK-3911,1 52565U 22051AJ  22140.91667824 -.00876487  00000-0 -54800-2 0  9996,2 52565  53.2171 258.5191 0002010  21.5400  56.8605 15.78468240  1646,6712.917,91.228,336.131,333.43300000000005,0.0
52565.0,STARLINK-3911,PAYLOAD,2022-05-21 06:00:00,15.77838895,0.0001751,53.2172,256.8557,32.997,140.27700000000002,-0.0056409999999999,-0.00876745,0.0,0 STARLINK-3911,1 52565U 22051AJ  22141.25001157 -.00876745  00000-0 -56410-2 0  9991,2 52565  53.2172 256.8557 0001751  32.9970 140.2770 15.77838895  1303,6714.7019999999975,91.264,337.74300000000005,335.391,0.0
52565.0,STARLINK-3911,PAYLOAD,2022-05-21 14:00:01,15.77209401,0.0002066,53.2173,255.1976,24.6416,242.8134,-0.0058018,-0.00876671,0.0,0 STARLINK-3911,1 52565U 22051AJ  22141.58335648 -.00876671  00000-0 -58018-2 0  9996,2 52565  53.2173 255.1976 0002066  24.6416 242.8134 15.77209401  1302,6716.488,91.3,339.741,336.966,0.0
52565.0,STARLINK-3911,PAYLOAD,2022-05-21 20:00:01,15.76737344,0.0001378,53.2172,253.9537,46.5425,200.937,-0.0059125,-0.00874656,0.0,0 STARLINK-3911,1 52565U 22051AJ  22141.83334491 -.00874656  00000-0 -59125-2 0  9990,2 52565  53.2172 253.9537 0001378  46.5425 200.9370 15.76737344  1788,6717.829000000002,91.328,340.62,338.76800000000014,0.0
52565.0,STARLINK-3911,PAYLOAD,2022-05-21 22:00:00,15.76581129,0.0001269,53.2173,253.5387,42.1112,318.6376,-0.0059715,-0.0087696,0.0,0 STARLINK-3911,1 52565U 22051AJ  22141.91667824 -.00876960  00000-0 -59715-2 0  9993,2 52565  53.2173 253.5387 0001269  42.1112 318.6376 15.76581129  1312,6718.273,91.337,340.99,339.285,0.0
52565.0,STARLINK-3911,PAYLOAD,2022-05-22 14:00:01,15.75320725,0.0001958,53.2175,250.2265,29.9106,155.2903,-0.0062924,-0.0087438,0.0,0 STARLINK-3911,1 52565U 22051AJ  22142.58334491 -.00874380  00000-0 -62924-2 0  9998,2 52565  53.2175 250.2265 0001958  29.9106 155.2903 15.75320725  1902,6721.856,91.41,345.037,342.405,0.0
52565.0,STARLINK-3911,PAYLOAD,2022-05-22 22:00:01,15.74693382,0.0001406,53.2172,248.5719,44.6222,231.7353,-0.0064936,-0.00877281,0.0,0 STARLINK-3911,1 52565U 22051AJ  22142.91668981 -.00877281  00000-0 -64936-2 0  9997,2 52565  53.2172 248.5719 0001406  44.6222 231.7353 15.74693382  1308,6723.641,91.446,346.451,344.56,0.0
52565.0,STARLINK-3911,PAYLOAD,2022-05-23 14:00:01,15.7326643,0.0002012,53.2172,245.2694,24.4017,71.8243,-0.00071332,-0.00099844,0.0,0 STARLINK-3911,1 52565U 22051AJ  22143.58334491 -.00099844  00000-0 -71332-3 0  9997,2 52565  53.2172 245.2694 0002012  24.4017  71.8243 15.73266430  1306,6727.706,91.529,350.9240000000001,348.217,0.0
52565.0,STARLINK-3911,PAYLOAD,2022-05-23 16:00:00,15.73208477,0.000215,53.2175,244.8572,26.9297,181.558,-5.1056e-05,-7.783e-05,0.0,0 STARLINK-3911,1 52565U 22051AJ  22143.66667824 -.00007783  00000-0 -51056-4 0  9998,2 52565  53.2175 244.8572 0002150  26.9297 181.5580 15.73208477  2074,6727.871,91.533,351.182,348.29,0.0
52565.0,STARLINK-3911,PAYLOAD,2022-05-23 22:00:01,15.7320707,0.0001474,53.2173,243.6189,44.0059,141.2495,-3.9679e-05,-6.187e-05,0.0,0 STARLINK-3911,1 52565U 22051AJ  22143.91668981 -.00006187  00000-0 -39679-4 0  9995,2 52565  53.2173 243.6189 0001474  44.0059 141.2495 15.73207070  1309,6727.875,91.533,350.732,348.74800000000016,0.0
52565.0,STARLINK-3911,PAYLOAD,2022-05-24 04:00:00,15.732611,0.0001448,53.2181,242.3927,27.7835,134.1705,-2.8592e-05,-4.642e-05,0.0,0 STARLINK-3911,1 52565U 22051AJ  22144.16667824 -.00004642  00000-0 -28592-4 0  9994,2 52565  53.2181 242.3927 0001448  27.7835 134.1705 15.73261100  2158,6727.721,91.53,350.56,348.612,0.0
52565.0,STARLINK-3911,PAYLOAD,2022-05-24 12:27:43,15.73397459,0.000118,53.2219,240.6484,157.1606,202.9467,0.00099647,0.00142834,0.0,0 STARLINK-3911,1 52565U 22051AJ  22144.51925210  .00142834  00000-0  99647-3 0  9991,2 52565  53.2219 240.6484 0001180 157.1606 202.9467 15.73397459  2219,6727.331999999999,91.522,349.991,348.403,0.0
52565.0,STARLINK-3911,PAYLOAD,2022-05-24 22:00:00,15.73194195,0.0001794,53.2175,238.6824,29.327,62.8536,-4.1172e-05,-6.393e-05,0.0,0 STARLINK-3911,1 52565U 22051AJ  22144.91667824 -.00006393  00000-0 -41172-4 0  9991,2 52565  53.2175 238.6824 0001794  29.3270  62.8536 15.73194195  2271,6727.9119999999975,91.534,350.9840000000001,348.57,0.0
52565.0,STARLINK-3911,PAYLOAD,2022-05-25 06:00:00,15.73246268,0.0001742,53.2179,237.0319,36.6711,144.4451,-0.00034975,-0.00049517,0.0,0 STARLINK-3911,1 52565U 22051AJ  22145.25001157 -.00049517  00000-0 -34975-3 0  9997,2 52565  53.2179 237.0319 0001742  36.6711 144.4451 15.73246268  2329,6727.763000000001,91.53,350.8,348.456,0.0
52565.0,STARLINK-3911,PAYLOAD,2022-05-25 12:00:00,15.73171436,0.0001928,53.2179,235.7965,30.6031,127.204,-0.0003424,-0.00048344,0.0,0 STARLINK-3911,1 52565U 22051AJ  22145.50001157 -.00048344  00000-0 -34240-3 0  9997,2 52565  53.2179 235.7965 0001928  30.6031 127.2040 15.73171436  2367,6727.977,91.535,351.139,348.5440000000001,0.0
52565.0,STARLINK-3911,PAYLOAD,2022-05-25 14:00:01,15.73128297,0.0001995,53.2181,235.3847,30.252,239.7868,0.00026363,0.00036427,0.0,0 STARLINK-3911,1 52565U 22051AJ  22145.58334491  .00036427  00000-0  26363-3 0  9999,2 52565  53.2181 235.3847 0001995  30.2520 239.7868 15.73128297  1305,6728.1,91.537,351.307,348.622,0.0
52565.0,STARLINK-3911,PAYLOAD,2022-05-25 20:28:50,15.73153611,0.0003335,53.2197,234.0472,28.7765,331.3438,0.00042548,0.00059409,0.0,0 STARLINK-3911,1 52565U 22051AJ  22145.85336790  .00059409  00000-0  42548-3 0  9991,2 52565  53.2197 234.0472 0003335  28.7765 331.3438 15.73153611  2429,6728.026999999999,91.536,352.136,347.649,0.0
52565.0,STARLINK-3911,PAYLOAD,2022-05-26 05:37:43,15.73188743,0.0002045,53.2181,232.1607,34.8299,325.2855,0.00037602,0.00052458,0.0,0 STARLINK-3911,1 52565U 22051AJ  22146.23453694  .00052458  00000-0  37602-3 0  9999,2 52565  53.2181 232.1607 0002045  34.8299 325.2855 15.73188743  2483,6727.927,91.534,351.168,348.416,0.0
52565.0,STARLINK-3911,PAYLOAD,2022-05-26 06:00:00,15.73329962,0.0001837,53.2186,232.0839,27.1668,60.648,-0.0007154,-0.00100395,0.0,0 STARLINK-3911,1 52565U 22051AJ  22146.25001157 -.00100395  00000-0 -71540-3 0  9999,2 52565  53.2186 232.0839 0001837  27.1668  60.6480 15.73329962  2481,6727.525,91.526,350.626,348.154,0.0
52565.0,STARLINK-3911,PAYLOAD,2022-05-26 11:43:37,15.73357906,0.0002205,53.2182,230.902,14.7005,345.4079,0.0011637,0.0016712,0.0,0 STARLINK-3911,1 52565U 22051AJ  22146.48862570  .00167120  00000-0  11637-2 0  9995,2 52565  53.2182 230.9020 0002205  14.7005 345.4079 15.73357906  2525,6727.445,91.524,350.793,347.827,0.0
52565.0,STARLINK-3911,PAYLOAD,2022-05-26 13:15:06,15.73278113,0.0001243,53.2181,230.5879,31.9191,328.1904,0.00031605,0.00044117,0.0,0 STARLINK-3911,1 52565U 22051AJ  22146.55215856  .00044117  00000-0  31605-3 0  9990,2 52565  53.2181 230.5879 0001243  31.9191 328.1904 15.73278113  2460,6727.672,91.529,350.374,348.701,0.0
52565.0,STARLINK-3911,PAYLOAD,2022-05-26 19:21:01,15.73241412,0.0002012,53.2182,229.3307,24.1128,335.9986,0.00036562,0.00051098,0.0,0 STARLINK-3911,1 52565U 22051AJ  22146.80626675  .00051098  00000-0  36562-3 0  9996,2 52565  53.2182 229.3307 0002012  24.1128 335.9986 15.73241412  2572,6727.776999999999,91.531,350.996,348.288,0.0
52565.0,STARLINK-3911,PAYLOAD,2022-05-26 22:00:00,15.73215047,0.0001996,53.2178,228.7858,25.0624,240.727,-0.0005207,-0.00073119,0.0,0 STARLINK-3911,1 52565U 22051AJ  22146.91667824 -.00073119  00000-0 -52070-3 0  9991,2 52565  53.2178 228.7858 0001996  25.0624 240.7270 15.73215047  1306,6727.852,91.532,351.06,348.374,0.0
